{
    "links": {
        "self": "http://www.neowsapp.com/rest/v1/neo/3627058?api_key=iIulBulltgU6a56xZRHN4H3l9WmuAYTsLGpBGhQ2"
    },
    "id": "3627058",
    "neo_reference_id": "3627058",
    "name": "(2013 CY129)",
    "designation": "2013 CY129",
    "nasa_jpl_url": "http://ssd.jpl.nasa.gov/sbdb.cgi?sstr=3627058",
    "absolute_magnitude_h": 24.3,
    "estimated_diameter": {
        "kilometers": {
            "estimated_diameter_min": 0.0366906138,
            "estimated_diameter_max": 0.0820427065
        },
        "meters": {
            "estimated_diameter_min": 36.6906137531,
            "estimated_diameter_max": 82.0427064882
        },
        "miles": {
            "estimated_diameter_min": 0.0227984834,
            "estimated_diameter_max": 0.0509789586
        },
        "feet": {
            "estimated_diameter_min": 120.3760332259,
            "estimated_diameter_max": 269.1689931548
        }
    },
    "is_potentially_hazardous_asteroid": false,
    "close_approach_data": [
        {
            "close_approach_date": "2013-02-18",
            "close_approach_date_full": "2013-Feb-18 02:16",
            "epoch_date_close_approach": 1361153760000,
            "relative_velocity": {
                "kilometers_per_second": "13.2803147747",
                "kilometers_per_hour": "47809.133189015",
                "miles_per_hour": "29706.7361195855"
            },
            "miss_distance": {
                "astronomical": "0.1334553049",
                "lunar": "51.9141136061",
                "kilometers": "19964629.353240563",
                "miles": "12405445.4319552494"
            },
            "orbiting_body": "Earth"
        }
    ],
    "orbital_data": {
        "orbit_id": "6",
        "orbit_determination_date": "2017-04-06 08:46:45",
        "first_observation_date": "2013-02-15",
        "last_observation_date": "2013-03-03",
        "data_arc_in_days": 16,
        "observations_used": 19,
        "orbit_uncertainty": "8",
        "minimum_orbit_intersection": ".12835",
        "jupiter_tisserand_invariant": "4.131",
        "epoch_osculation": "2456339.5",
        "eccentricity": ".3224352252669849",
        "semi_major_axis": "1.646750523660331",
        "inclination": "24.1683088354138",
        "ascending_node_longitude": "150.5004035605074",
        "orbital_period": "771.8628562066768",
        "perihelion_distance": "1.115780147605387",
        "perihelion_argument": "354.5200420251048",
        "aphelion_distance": "2.177720899715275",
        "perihelion_time": "2456335.054187138311",
        "mean_anomaly": "2.073545342074974",
        "mean_motion": ".4664040989991687",
        "equinox": "J2000",
        "orbit_class": {
            "orbit_class_type": "AMO",
            "orbit_class_description": "Near-Earth asteroid orbits similar to that of 1221 Amor",
            "orbit_class_range": "1.017 AU < q (perihelion) < 1.3 AU"
        }
    },
    "is_sentry_object": false
}